start=new Date('2021-11-07T00:00:00.000Z').valueOf();
sats=[{"MEAN_ANOMALY":"278.1851","DECAY_DATE":null,"LAUNCH_DATE":"2021-04-29","REF_FRAME":"TEME","PERIOD":"95.595","MEAN_MOTION_DDOT":"0.0000000000000","OBJECT_ID":"2021-036H","TLE_LINE1":"1 48283U 21036H   21310.49974031 -.00029668  00000-0 -19835-2 0  9992","ECCENTRICITY":"0.00012890","APOAPSIS":"548.241","SITE":"AFETR","EPOCH":"2021-11-06T11:59:37.562784","TIME_SYSTEM":"UTC","CLASSIFICATION_TYPE":"U","ARG_OF_PERICENTER":"81.9284","OBJECT_NAME":"STARLINK-2516","SEMIMAJOR_AXIS":"6925.483","ELEMENT_SET_NO":"999","BSTAR":"-0.00198350000000","CENTER_NAME":"EARTH","MEAN_MOTION_DOT":"-0.00029668","TLE_LINE2":"2 48283  53.0566 353.3178 0001289  81.9284 278.1851 15.06356069 29547","EPHEMERIS_TYPE":"0","RA_OF_ASC_NODE":"353.3178","PERIAPSIS":"546.456","MEAN_ELEMENT_THEORY":"SGP4","REV_AT_EPOCH":"2954","COUNTRY_CODE":"US","FILE":"3206165","MEAN_MOTION":"15.06356069","OBJECT_TYPE":"PAYLOAD","INCLINATION":"53.0566","GP_ID":"189130717","NORAD_CAT_ID":"48283","RCS_SIZE":"LARGE"},{"CENTER_NAME":"EARTH","TLE_LINE2":"2 48284  53.0501 353.3374 0001165  92.1008 268.0115 15.06364297 29538","MEAN_MOTION_DOT":"-0.00028626","RA_OF_ASC_NODE":"353.3374","EPHEMERIS_TYPE":"0","PERIAPSIS":"546.516","MEAN_ELEMENT_THEORY":"SGP4","COUNTRY_CODE":"US","REV_AT_EPOCH":"2953","FILE":"3206165","OBJECT_NAME":"STARLINK-2564","ELEMENT_SET_NO":"999","SEMIMAJOR_AXIS":"6925.458","BSTAR":"-0.00191250000000","GP_ID":"189130969","RCS_SIZE":"LARGE","NORAD_CAT_ID":"48284","MEAN_MOTION":"15.06364297","OBJECT_TYPE":"PAYLOAD","INCLINATION":"53.0501","MEAN_MOTION_DDOT":"0.0000000000000","OBJECT_ID":"2021-036J","MEAN_ANOMALY":"268.0115","LAUNCH_DATE":"2021-04-29","DECAY_DATE":null,"REF_FRAME":"TEME","PERIOD":"95.594","CLASSIFICATION_TYPE":"U","ARG_OF_PERICENTER":"92.1008","TLE_LINE1":"1 48284U 21036J   21310.49605384 -.00028626  00000-0 -19125-2 0  9990","ECCENTRICITY":"0.00011650","APOAPSIS":"548.130","SITE":"AFETR","TIME_SYSTEM":"UTC","EPOCH":"2021-11-06T11:54:19.051776"},{"BSTAR":"-0.00203080000000","OBJECT_NAME":"STARLINK-2548","SEMIMAJOR_AXIS":"6925.530","ELEMENT_SET_NO":"999","PERIAPSIS":"546.411","MEAN_ELEMENT_THEORY":"SGP4","REV_AT_EPOCH":"3013","COUNTRY_CODE":"US","FILE":"3205771","CENTER_NAME":"EARTH","MEAN_MOTION_DOT":"-0.00030354","TLE_LINE2":"2 48285  53.0490 352.7613 0001422  76.9287 283.1861 15.06340660 30132","EPHEMERIS_TYPE":"0","RA_OF_ASC_NODE":"352.7613","OBJECT_TYPE":"PAYLOAD","INCLINATION":"53.0490","MEAN_MOTION":"15.06340660","GP_ID":"189100567","RCS_SIZE":"LARGE","NORAD_CAT_ID":"48285","MEAN_ANOMALY":"283.1861","LAUNCH_DATE":"2021-04-29","DECAY_DATE":null,"REF_FRAME":"TEME","PERIOD":"95.596","OBJECT_ID":"2021-036K","MEAN_MOTION_DDOT":"0.0000000000000","SITE":"AFETR","EPOCH":"2021-11-06T15:00:06.224256","TIME_SYSTEM":"UTC","TLE_LINE1":"1 48285U 21036K   21310.62507204 -.00030354  00000-0 -20308-2 0  9994","ECCENTRICITY":"0.00014220","APOAPSIS":"548.380","ARG_OF_PERICENTER":"76.9287","CLASSIFICATION_TYPE":"U"},{"MEAN_MOTION":"15.06365789","OBJECT_TYPE":"PAYLOAD","INCLINATION":"53.0560","GP_ID":"189129968","NORAD_CAT_ID":"48286","RCS_SIZE":"LARGE","ELEMENT_SET_NO":"999","SEMIMAJOR_AXIS":"6925.453","OBJECT_NAME":"STARLINK-2547","BSTAR":"-0.00134750000000","TLE_LINE2":"2 48286  53.0560 353.3663 0001414  78.0999 282.0149 15.06365789 29535","MEAN_MOTION_DOT":"-0.00020277","CENTER_NAME":"EARTH","EPHEMERIS_TYPE":"0","RA_OF_ASC_NODE":"353.3663","MEAN_ELEMENT_THEORY":"SGP4","PERIAPSIS":"546.339","FILE":"3206165","COUNTRY_CODE":"US","REV_AT_EPOCH":"2953","ECCENTRICITY":"0.00014140","TLE_LINE1":"1 48286U 21036L   21310.48868556 -.00020277  00000-0 -13475-2 0  9999","APOAPSIS":"548.298","SITE":"AFETR","TIME_SYSTEM":"UTC","EPOCH":"2021-11-06T11:43:42.432384","CLASSIFICATION_TYPE":"U","ARG_OF_PERICENTER":"78.0999","REF_FRAME":"TEME","DECAY_DATE":null,"LAUNCH_DATE":"2021-04-29","PERIOD":"95.594","MEAN_ANOMALY":"282.0149","MEAN_MOTION_DDOT":"0.0000000000000","OBJECT_ID":"2021-036L"},{"MEAN_MOTION":"15.06340781","INCLINATION":"53.0551","OBJECT_TYPE":"PAYLOAD","NORAD_CAT_ID":"48287","RCS_SIZE":"LARGE","GP_ID":"189099343","OBJECT_NAME":"STARLINK-2566","SEMIMAJOR_AXIS":"6925.530","ELEMENT_SET_NO":"999","BSTAR":"-0.00160770000000","EPHEMERIS_TYPE":"0","RA_OF_ASC_NODE":"352.7831","CENTER_NAME":"EARTH","TLE_LINE2":"2 48287  53.0551 352.7831 0001301  81.3490 278.7646 15.06340781 30131","MEAN_MOTION_DOT":"-0.00024109","COUNTRY_CODE":"US","REV_AT_EPOCH":"3013","FILE":"3205713","PERIAPSIS":"546.494","MEAN_ELEMENT_THEORY":"SGP4","APOAPSIS":"548.296","TLE_LINE1":"1 48287U 21036M   21310.61770789 -.00024109  00000-0 -16077-2 0  9994","ECCENTRICITY":"0.00013010","EPOCH":"2021-11-06T14:49:29.961696","TIME_SYSTEM":"UTC","SITE":"AFETR","CLASSIFICATION_TYPE":"U","ARG_OF_PERICENTER":"81.3490","MEAN_ANOMALY":"278.7646","DECAY_DATE":null,"PERIOD":"95.596","LAUNCH_DATE":"2021-04-29","REF_FRAME":"TEME","MEAN_MOTION_DDOT":"0.0000000000000","OBJECT_ID":"2021-036M"},{"MEAN_MOTION_DDOT":"0.0000000000000","OBJECT_ID":"2021-036N","MEAN_ANOMALY":"281.6996","LAUNCH_DATE":"2021-04-29","DECAY_DATE":null,"PERIOD":"95.594","REF_FRAME":"TEME","CLASSIFICATION_TYPE":"U","ARG_OF_PERICENTER":"78.4162","TLE_LINE1":"1 48288U 21036N   21310.48131385 -.00022921  00000-0 -15262-2 0  9998","ECCENTRICITY":"0.00015100","APOAPSIS":"548.361","SITE":"AFETR","EPOCH":"2021-11-06T11:33:05.516640","TIME_SYSTEM":"UTC","CENTER_NAME":"EARTH","MEAN_MOTION_DOT":"-0.00022921","TLE_LINE2":"2 48288  53.0561 353.3999 0001510  78.4162 281.6996 15.06366777 29536","EPHEMERIS_TYPE":"0","RA_OF_ASC_NODE":"353.3999","PERIAPSIS":"546.270","MEAN_ELEMENT_THEORY":"SGP4","COUNTRY_CODE":"US","REV_AT_EPOCH":"2953","FILE":"3206165","OBJECT_NAME":"STARLINK-2562","ELEMENT_SET_NO":"999","SEMIMAJOR_AXIS":"6925.450","BSTAR":"-0.00152620000000","GP_ID":"189131469","RCS_SIZE":"LARGE","NORAD_CAT_ID":"48288","MEAN_MOTION":"15.06366777","OBJECT_TYPE":"PAYLOAD","INCLINATION":"53.0561"},{"MEAN_MOTION_DDOT":"0.0000000000000","OBJECT_ID":"2021-036P","DECAY_DATE":null,"PERIOD":"95.595","LAUNCH_DATE":"2021-04-29","REF_FRAME":"TEME","MEAN_ANOMALY":"273.9130","CLASSIFICATION_TYPE":"U","ARG_OF_PERICENTER":"86.2027","ECCENTRICITY":"0.00014660","TLE_LINE1":"1 48289U 21036P   21310.80937019 -.00009840  00000-0 -64335-3 0  9994","APOAPSIS":"548.363","SITE":"AFETR","TIME_SYSTEM":"UTC","EPOCH":"2021-11-06T19:25:29.584416","MEAN_MOTION_DOT":"-0.00009840","TLE_LINE2":"2 48289  53.0545 351.9248 0001466  86.2027 273.9130 15.06356335 30161","CENTER_NAME":"EARTH","RA_OF_ASC_NODE":"351.9248","EPHEMERIS_TYPE":"0","MEAN_ELEMENT_THEORY":"SGP4","PERIAPSIS":"546.332","FILE":"3205713","REV_AT_EPOCH":"3016","COUNTRY_CODE":"US","SEMIMAJOR_AXIS":"6925.482","ELEMENT_SET_NO":"999","OBJECT_NAME":"STARLINK-2545","BSTAR":"-0.00064335000000","GP_ID":"189099338","RCS_SIZE":"LARGE","NORAD_CAT_ID":"48289","MEAN_MOTION":"15.06356335","OBJECT_TYPE":"PAYLOAD","INCLINATION":"53.0545"},{"BSTAR":"-0.00111660000000","OBJECT_NAME":"STARLINK-2540","SEMIMAJOR_AXIS":"6925.554","ELEMENT_SET_NO":"999","PERIAPSIS":"546.337","MEAN_ELEMENT_THEORY":"SGP4","REV_AT_EPOCH":"3013","COUNTRY_CODE":"US","FILE":"3205713","CENTER_NAME":"EARTH","MEAN_MOTION_DOT":"-0.00016844","TLE_LINE2":"2 48290  53.0548 352.8547 0001562  76.2824 283.8339 15.06333021 30134","RA_OF_ASC_NODE":"352.8547","EPHEMERIS_TYPE":"0","OBJECT_TYPE":"PAYLOAD","INCLINATION":"53.0548","MEAN_MOTION":"15.06333021","GP_ID":"189098970","RCS_SIZE":"LARGE","NORAD_CAT_ID":"48290","MEAN_ANOMALY":"283.8339","REF_FRAME":"TEME","DECAY_DATE":null,"LAUNCH_DATE":"2021-04-29","PERIOD":"95.596","OBJECT_ID":"2021-036Q","MEAN_MOTION_DDOT":"0.0000000000000","SITE":"AFETR","TIME_SYSTEM":"UTC","EPOCH":"2021-11-06T14:33:36.320832","TLE_LINE1":"1 48290U 21036Q   21310.60667038 -.00016844  00000-0 -11166-2 0  9990","ECCENTRICITY":"0.00015620","APOAPSIS":"548.501","ARG_OF_PERICENTER":"76.2824","CLASSIFICATION_TYPE":"U"},{"MEAN_MOTION_DDOT":"0.0000000000000","OBJECT_ID":"2021-036R","DECAY_DATE":null,"PERIOD":"95.595","LAUNCH_DATE":"2021-04-29","REF_FRAME":"TEME","MEAN_ANOMALY":"278.0797","CLASSIFICATION_TYPE":"U","ARG_OF_PERICENTER":"82.0336","ECCENTRICITY":"0.00012720","TLE_LINE1":"1 48291U 21036R   21310.60295220 -.00028800  00000-0 -19251-2 0  9999","APOAPSIS":"548.252","SITE":"AFETR","TIME_SYSTEM":"UTC","EPOCH":"2021-11-06T14:28:15.070080","TLE_LINE2":"2 48291  53.0550 352.8620 0001272  82.0336 278.0797 15.06348767 30138","MEAN_MOTION_DOT":"-0.00028800","CENTER_NAME":"EARTH","EPHEMERIS_TYPE":"0","RA_OF_ASC_NODE":"352.8620","MEAN_ELEMENT_THEORY":"SGP4","PERIAPSIS":"546.490","FILE":"3205972","REV_AT_EPOCH":"3013","COUNTRY_CODE":"US","SEMIMAJOR_AXIS":"6925.506","ELEMENT_SET_NO":"999","OBJECT_NAME":"STARLINK-2555","BSTAR":"-0.00192510000000","GP_ID":"189105915","RCS_SIZE":"LARGE","NORAD_CAT_ID":"48291","MEAN_MOTION":"15.06348767","OBJECT_TYPE":"PAYLOAD","INCLINATION":"53.0550"},{"MEAN_ELEMENT_THEORY":"SGP4","PERIAPSIS":"546.052","FILE":"3205965","REV_AT_EPOCH":"3013","COUNTRY_CODE":"US","MEAN_MOTION_DOT":"-0.00016192","TLE_LINE2":"2 48292  53.0551 352.8799 0001906  62.5478 297.5705 15.06348157 30139","CENTER_NAME":"EARTH","RA_OF_ASC_NODE":"352.8799","EPHEMERIS_TYPE":"0","BSTAR":"-0.00107210000000","SEMIMAJOR_AXIS":"6925.507","ELEMENT_SET_NO":"999","OBJECT_NAME":"STARLINK-2542","GP_ID":"189105339","NORAD_CAT_ID":"48292","RCS_SIZE":"MEDIUM","OBJECT_TYPE":"PAYLOAD","INCLINATION":"53.0551","MEAN_MOTION":"15.06348157","OBJECT_ID":"2021-036S","MEAN_MOTION_DDOT":"0.0000000000000","DECAY_DATE":null,"LAUNCH_DATE":"2021-04-29","PERIOD":"95.595","REF_FRAME":"TEME","MEAN_ANOMALY":"297.5705","ARG_OF_PERICENTER":"62.5478","CLASSIFICATION_TYPE":"U","SITE":"AFETR","EPOCH":"2021-11-06T14:21:36.826560","TIME_SYSTEM":"UTC","ECCENTRICITY":"0.00019060","TLE_LINE1":"1 48292U 21036S   21310.59834290 -.00016192  00000-0 -10721-2 0  9998","APOAPSIS":"548.692"}];
